IRIDIUM 150             
1 43257U 18030J   24291.46435497  .00001264  00000+0  44420-3 0  9992
2 43257  86.4038 184.4684 0002449  80.8441 279.3032 14.34217625343057
IRIDIUM 143             
1 43258U 18030K   24291.72440301  .00001240  00000+0  43570-3 0  9991
2 43258  86.4043 184.4284 0002698  81.9612 278.1889 14.34218935343050
IRIDIUM 161             
1 43478U 18047C   24291.41485805  .00001406  00000+0  41170-3 0  9995
2 43478  86.4517 342.4758 0002120  97.7115 262.4327 14.43300149337476
IRIDIUM 152             
1 43479U 18047D   24291.41804115  .00001131  00000+0  39690-3 0  9994
2 43479  86.3994 342.3338 0002125  94.0673 266.0766 14.34219264335373
IRIDIUM 147             
1 43480U 18047E   24291.63369829  .00000085  00000+0  23353-4 0  9995
2 43480  86.3995 342.2383 0001927  95.6164 264.5252 14.34209571335403
IRIDIUM 110             
1 43481U 18047F   24291.43073240  .00001090  00000+0  38208-3 0  9994
2 43481  86.3996 342.3990 0001751 103.7313 256.4077 14.34215119335367
IRIDIUM 162             
1 43482U 18047G   24291.54724033  .00001506  00000+0  44156-3 0  9991
2 43482  86.4516 342.3190 0001845  97.5611 262.5800 14.43286209337489
IRIDIUM 160             
1 43569U 18061A   24291.44630713  .00000133  00000+0  40549-4 0  9991
2 43569  86.3934 310.7658 0002013  92.1253 268.0173 14.34218414326268
